CTC2_L_00596007-03
1 10062U 26779EN  26075.70049769  .00000000  00000+0  00000-0 0  9991
2 10062  55.0000 180.0000 0000000   0.0000 144.0000  6.30405269    15
CTC2_L_00596007-04
1 10063U 23946X   26075.70049769  .00000000  00000+0  00000-0 0  9995
2 10063  55.0000 180.0000 0000000   0.0000 180.0000  6.30405269    16
CTC2_L_00596007-05
1 10064U 23775WM  26075.70049769  .00000000  00000+0  00000-0 0  9996
2 10064  55.0000 180.0000 0000000   0.0000 216.0000  6.30405269    17
CTC2_L_00596007-06
1 10065U 24093LU  26075.70049769  .00000000  00000+0  00000-0 0  9991
2 10065  55.0000 180.0000 0000000   0.0000 252.0000  6.30405269    18
CTC2_L_00596007-07
1 10066U 25399PX  26075.70049769  .00000000  00000+0  00000-0 0  9992
2 10066  55.0000 180.0000 0000000   0.0000 288.0000  6.30405269    18
CTC2_L_00596007-08
1 10067U 23773M   26075.70049769  .00000000  00000+0  00000-0 0  9997
2 10067  55.0000 180.0000 0000000   0.0000 324.0000  6.30405269    10
CTC2_L_00596007-09
1 10068U 22195RG  26075.70049769  .00000000  00000+0  00000-0 0  9995
2 10068  55.0000 180.0000 0000000   0.0000   0.0000  6.30405269    12
CTC2_L_00596007-10
1 10069U 26210KW  26075.70049769  .00000000  00000+0  00000-0 0  9998
2 10069  55.0000 180.0000 0000000   0.0000  36.0000  6.30405269    12
CTC2_L_00596008-01
1 10070U 23454PF  26075.70049769  .00000000  00000+0  00000-0 0  9997
2 10070  55.0000 210.0000 0000000   0.0000  84.0000  6.30405269    11
CTC2_L_00596008-02
1 10071U 24439LZ  26075.70049769  .00000000  00000+0  00000-0 0  9992
2 10071  55.0000 210.0000 0000000   0.0000 120.0000  6.30405269    13
CTC2_L_00596008-03
1 10072U 26555YY  26075.70049769  .00000000  00000+0  00000-0 0  9994
2 10072  55.0000 210.0000 0000000   0.0000 156.0000  6.30405269    13
CTC2_L_00596008-04
1 10073U 26543FZ  26075.70049769  .00000000  00000+0  00000-0 0  9992
2 10073  55.0000 210.0000 0000000   0.0000 192.0000  6.30405269    14
CTC2_L_00596008-05
1 10074U 25849WT  26075.70049769  .00000000  00000+0  00000-0 0  9991
2 10074  55.0000 210.0000 0000000   0.0000 228.0000  6.30405269    15
CTC2_L_00596008-06
1 10075U 26600GH  26075.70049769  .00000000  00000+0  00000-0 0  9998
2 10075  55.0000 210.0000 0000000   0.0000 264.0000  6.30405269    16
CTC2_L_00596008-07
1 10076U 25087IX  26075.70049769  .00000000  00000+0  00000-0 0  9997
2 10076  55.0000 210.0000 0000000   0.0000 300.0000  6.30405269    18
CTC2_L_00596008-08
1 10077U 24318NS  26075.70049769  .00000000  00000+0  00000-0 0  9994
2 10077  55.0000 210.0000 0000000   0.0000 336.0000  6.30405269    18
CTC2_L_00596008-09
1 10078U 23075YR  26075.70049769  .00000000  00000+0  00000-0 0  9994
2 10078  55.0000 210.0000 0000000   0.0000  12.0000  6.30405269    10
CTC2_L_00596008-10
1 10079U 22767AB  26075.70049769  .00000000  00000+0  00000-0 0  9992
2 10079  55.0000 210.0000 0000000   0.0000  48.0000  6.30405269    10
CTC2_L_00596009-01
1 10080U 23513HH  26075.70049769  .00000000  00000+0  00000-0 0  9994
2 10080  55.0000 240.0000 0000000   0.0000  96.0000  6.30405269    18
CTC2_L_00596009-02
1 10081U 23285LC  26075.70049769  .00000000  00000+0  00000-0 0  9991
2 10081  55.0000 240.0000 0000000   0.0000 132.0000  6.30405269    10
CTC2_L_00596009-03
1 10082U 22136HW  26075.70049769  .00000000  00000+0  00000-0 0  9996
2 10082  55.0000 240.0000 0000000   0.0000 168.0000  6.30405269    10
CTC2_L_00596009-04
1 10083U 25422NU  26075.70049769  .00000000  00000+0  00000-0 0  9998
2 10083  55.0000 240.0000 0000000   0.0000 204.0000  6.30405269    12
CTC2_L_00596009-05
1 10084U 26856VM  26075.70049769  .00000000  00000+0  00000-0 0  9991
2 10084  55.0000 240.0000 0000000   0.0000 240.0000  6.30405269    13
CTC2_L_00596009-06
1 10085U 25746DM  26075.70049769  .00000000  00000+0  00000-0 0  9999
2 10085  55.0000 240.0000 0000000   0.0000 276.0000  6.30405269    13
CTC2_L_00596009-07
1 10086U 25540TT  26075.70049769  .00000000  00000+0  00000-0 0  9992
2 10086  55.0000 240.0000 0000000   0.0000 312.0000  6.30405269    15
CTC2_L_00596009-08
1 10087U 26794JZ  26075.70049769  .00000000  00000+0  00000-0 0  9995
2 10087  55.0000 240.0000 0000000   0.0000 348.0000  6.30405269    15
CTC2_L_00596009-09
1 10088U 23856RO  26075.70049769  .00000000  00000+0  00000-0 0  9992
2 10088  55.0000 240.0000 0000000   0.0000  24.0000  6.30405269    17
CTC2_L_00596009-10
1 10089U 23346UD  26075.70049769  .00000000  00000+0  00000-0 0  9997
2 10089  55.0000 240.0000 0000000   0.0000  60.0000  6.30405269    18
CTC2_L_00596010-01
1 10090U 24336QS  26075.70049769  .00000000  00000+0  00000-0 0  9999
2 10090  55.0000 270.0000 0000000   0.0000 108.0000  6.30405269    16
CTC2_L_00596010-02
1 10091U 23135QQ  26075.70049769  .00000000  00000+0  00000-0 0  9996
2 10091  55.0000 270.0000 0000000   0.0000 144.0000  6.30405269    17
CTC2_L_00596010-03
1 10092U 26550LO  26075.70049769  .00000000  00000+0  00000-0 0  9991
2 10092  55.0000 270.0000 0000000   0.0000 180.0000  6.30405269    18
CTC2_L_00596010-04
1 10093U 24830ER  26075.70049769  .00000000  00000+0  00000-0 0  9991
2 10093  55.0000 270.0000 0000000   0.0000 216.0000  6.30405269    19
CTC2_L_00596010-05
1 10094U 25165HO  26075.70049769  .00000000  00000+0  00000-0 0  9994
2 10094  55.0000 270.0000 0000000   0.0000 252.0000  6.30405269    10
CTC2_L_00596010-06
1 10095U 23281RA  26075.70049769  .00000000  00000+0  00000-0 0  9992
2 10095  55.0000 270.0000 0000000   0.0000 288.0000  6.30405269    10
CTC2_L_00596010-07
1 10096U 26870OA  26075.70049769  .00000000  00000+0  00000-0 0  9990
2 10096  55.0000 270.0000 0000000   0.0000 324.0000  6.30405269    12
CTC2_L_00596010-08
1 10097U 26930QP  26075.70049769  .00000000  00000+0  00000-0 0  9998
2 10097  55.0000 270.0000 0000000   0.0000   0.0000  6.30405269    14
CTC2_L_00596010-09
1 10098U 23404FN  26075.70049769  .00000000  00000+0  00000-0 0  9992
2 10098  55.0000 270.0000 0000000   0.0000  36.0000  6.30405269    14
CTC2_L_00596010-10
1 10099U 22582YJ  26075.70049769  .00000000  00000+0  00000-0 0  9999
2 10099  55.0000 270.0000 0000000   0.0000  72.0000  6.30405269    15
CTC2_L_00596011-01
1 10100U 26520WX  26075.70049769  .00000000  00000+0  00000-0 0  9998
2 10100  55.0000 300.0000 0000000   0.0000 120.0000  6.30405269    16
CTC2_L_00596011-02
1 10101U 25714WY  26075.70049769  .00000000  00000+0  00000-0 0  9993
2 10101  55.0000 300.0000 0000000   0.0000 156.0000  6.30405269    16
CTC2_L_00596011-03
1 10102U 23999YA  26075.70049769  .00000000  00000+0  00000-0 0  9997
2 10102  55.0000 300.0000 0000000   0.0000 192.0000  6.30405269    17
CTC2_L_00596011-04
1 10103U 24928CD  26075.70049769  .00000000  00000+0  00000-0 0  9991
2 10103  55.0000 300.0000 0000000   0.0000 228.0000  6.30405269    18
CTC2_L_00596011-05
1 10104U 24522PC  26075.70049769  .00000000  00000+0  00000-0 0  9992
2 10104  55.0000 300.0000 0000000   0.0000 264.0000  6.30405269    19
CTC2_L_00596011-06
1 10105U 26965QG  26075.70049769  .00000000  00000+0  00000-0 0  9996
2 10105  55.0000 300.0000 0000000   0.0000 300.0000  6.30405269    11
CTC2_L_00596011-07
1 10106U 24078US  26075.70049769  .00000000  00000+0  00000-0 0  9990
2 10106  55.0000 300.0000 0000000   0.0000 336.0000  6.30405269    11
CTC2_L_00596011-08
1 10107U 23112UH  26075.70049769  .00000000  00000+0  00000-0 0  9999
2 10107  55.0000 300.0000 0000000   0.0000  12.0000  6.30405269    13
CTC2_L_00596011-09
1 10108U 26986AA  26075.70049769  .00000000  00000+0  00000-0 0  9992
2 10108  55.0000 300.0000 0000000   0.0000  48.0000  6.30405269    13
CTC2_L_00596011-10
1 10109U 24625L   26075.70049769  .00000000  00000+0  00000-0 0  9991
2 10109  55.0000 300.0000 0000000   0.0000  84.0000  6.30405269    14
CTC2_L_00596012-01
1 10110U 25288YO  26075.70049769  .00000000  00000+0  00000-0 0  9999
2 10110  55.0000 330.0000 0000000   0.0000 132.0000  6.30405269    13
CTC2_L_00596012-02
1 10111U 25346YX  26075.70049769  .00000000  00000+0  00000-0 0  9995
2 10111  55.0000 330.0000 0000000   0.0000 168.0000  6.30405269    13
CTC2_L_00596012-03
1 10112U 26833HN  26075.70049769  .00000000  00000+0  00000-0 0  9998
2 10112  55.0000 330.0000 0000000   0.0000 204.0000  6.30405269    15
CTC2_L_00596012-04
1 10113U 26632NH  26075.70049769  .00000000  00000+0  00000-0 0  9996
2 10113  55.0000 330.0000 0000000   0.0000 240.0000  6.30405269    16
CTC2_L_00596012-05
1 10114U 24650QK  26075.70049769  .00000000  00000+0  00000-0 0  9995
2 10114  55.0000 330.0000 0000000   0.0000 276.0000  6.30405269    16
CTC2_L_00596012-06
1 10115U 26889FZ  26075.70049769  .00000000  00000+0  00000-0 0  9992
2 10115  55.0000 330.0000 0000000   0.0000 312.0000  6.30405269    18
CTC2_L_00596012-07
1 10116U 23391HJ  26075.70049769  .00000000  00000+0  00000-0 0  9998
2 10116  55.0000 330.0000 0000000   0.0000 348.0000  6.30405269    18
CTC2_L_00596012-08
1 10117U 24470IC  26075.70049769  .00000000  00000+0  00000-0 0  9998
2 10117  55.0000 330.0000 0000000   0.0000  24.0000  6.30405269    10
CTC2_L_00596012-09
1 10118U 24364VL  26075.70049769  .00000000  00000+0  00000-0 0  9991
2 10118  55.0000 330.0000 0000000   0.0000  60.0000  6.30405269    11
CTC2_L_00596012-10
1 10119U 23623QK  26075.70049769  .00000000  00000+0  00000-0 0  9999
2 10119  55.0000 330.0000 0000000   0.0000  96.0000  6.30405269    11
